NORAD_CAT_ID,OBJECT_NAME,OBJECT_TYPE,EPOCH,MEAN_MOTION,ECCENTRICITY,INCLINATION,RA_OF_ASC_NODE,ARG_OF_PERICENTER,MEAN_ANOMALY,BSTAR,MEAN_MOTION_DOT,MEAN_MOTION_DDOT,TLE_LINE0,TLE_LINE1,TLE_LINE2,SEMIMAJOR_AXIS,PERIOD,APOGEE,PERIGEE,DECAYED
51134.0,STARLINK-3183,PAYLOAD,2023-07-03 17:51:55,15.08831515,0.0001053,53.2167,8.2655,82.654,277.4572,0.00017883,2.559e-05,0.0,0 STARLINK-3183,1 51134U 22005AG  23184.74438883  .00002559  00000-0  17883-3 0  9997,2 51134  53.2167   8.2655 0001053  82.6540 277.4572 15.08831515 82056,6917.906,95.438,540.5,539.043,0.0
51134.0,STARLINK-3183,PAYLOAD,2023-07-03 21:02:41,15.0884008,0.0001078,53.2168,7.6707,83.1037,277.0078,8.2131e-05,1.02e-05,0.0,0 STARLINK-3183,1 51134U 22005AG  23184.87686377  .00001020  00000-0  82131-4 0  9995,2 51134  53.2168   7.6707 0001078  83.1037 277.0078 15.08840080 82078,6917.88,95.438,540.491,538.999,0.0
51134.0,STARLINK-3183,PAYLOAD,2023-07-05 00:04:13,15.08850421,0.0001072,53.2177,2.6165,85.9851,274.1264,0.00015129,2.121e-05,0.0,0 STARLINK-3183,1 51134U 22005AG  23186.00293833  .00002121  00000-0  15129-3 0  9998,2 51134  53.2177   2.6165 0001072  85.9851 274.1264 15.08850421 82243,6917.849,95.437,540.455,538.972,0.0
51134.0,STARLINK-3183,PAYLOAD,2023-07-05 04:50:24,15.08834698,9.49e-05,53.2186,1.7256,85.9422,274.1678,1.1764e-05,-1.01e-06,0.0,0 STARLINK-3183,1 51134U 22005AG  23186.20167084 -.00000101  00000-0  11764-4 0  9997,2 51134  53.2186   1.7256 0000949  85.9422 274.1678 15.08834698 82270,6917.897,95.438,540.418,539.105,0.0
51134.0,STARLINK-3183,PAYLOAD,2023-07-06 11:02:43,15.08840479,0.0001104,53.2173,356.0747,82.1576,277.9541,0.00011374,1.523e-05,0.0,0 STARLINK-3183,1 51134U 22005AG  23187.46022869  .00001523  00000-0  11374-3 0  9991,2 51134  53.2173 356.0747 0001104  82.1576 277.9541 15.08840479 82465,6917.879,95.438,540.508,538.98,0.0
51134.0,STARLINK-3183,PAYLOAD,2023-07-07 17:15:03,15.0884774,0.0001199,53.2171,350.4245,84.1725,275.9404,0.00028415,4.238e-05,0.0,0 STARLINK-3183,1 51134U 22005AG  23188.71878704  .00004238  00000-0  28415-3 0  9997,2 51134  53.2171 350.4245 0001199  84.1725 275.9404 15.08847740 82651,6917.857,95.437,540.551,538.892,0.0
51134.0,STARLINK-3183,PAYLOAD,2023-07-08 10:44:17,15.0884466,0.000147,53.2163,347.1537,73.4715,286.6438,0.00013984,1.939e-05,0.0,0 STARLINK-3183,1 51134U 22005AG  23189.44742740  .00001939  00000-0  13984-3 0  9998,2 51134  53.2163 347.1537 0001470  73.4715 286.6438 15.08844660 82767,6917.866,95.437,540.748,538.714,0.0
51134.0,STARLINK-3183,PAYLOAD,2023-07-09 12:10:28,15.08836689,0.000121,53.217,342.3948,83.4579,276.6551,1.9268e-06,-2.57e-06,0.0,0 STARLINK-3183,1 51134U 22005AG  23190.50727013 -.00000257  00000-0  19268-5 0  9999,2 51134  53.2170 342.3948 0001210  83.4579 276.6551 15.08836689 82924,6917.891,95.438,540.593,538.918,0.0
51134.0,STARLINK-3183,PAYLOAD,2023-07-10 16:47:24,15.08845963,0.0001153,53.2175,337.0432,86.5047,273.6077,0.00023362,3.433e-05,0.0,0 STARLINK-3183,1 51134U 22005AG  23191.69958808  .00003433  00000-0  23362-3 0  9994,2 51134  53.2175 337.0432 0001153  86.5047 273.6077 15.08845963 83104,6917.862,95.437,540.525,538.93,0.0
51134.0,STARLINK-3183,PAYLOAD,2023-07-11 02:19:43,15.08832215,0.0001772,53.2175,335.2563,90.4955,269.624,-4.2852e-05,-9.7e-06,0.0,0 STARLINK-3183,1 51134U 22005AG  23192.09703369 -.00000970  00000-0 -42852-4 0  9990,2 51134  53.2175 335.2563 0001772  90.4955 269.6240 15.08832215 83167,6917.904,95.438,540.995,538.543,0.0
51134.0,STARLINK-3183,PAYLOAD,2023-07-11 16:38:11,15.0884756,9.65e-05,53.2172,332.583,94.546,265.5643,0.00027518,4.095e-05,0.0,0 STARLINK-3183,1 51134U 22005AG  23192.69318825  .00004095  00000-0  27518-3 0  9996,2 51134  53.2172 332.5830 0000965  94.5460 265.5643 15.08847560 83251,6917.857,95.437,540.39,539.055,0.0
51134.0,STARLINK-3183,PAYLOAD,2023-07-12 08:32:03,15.08845276,0.0001667,53.217,329.6093,90.9175,269.2008,0.00031264,4.692e-05,0.0,0 STARLINK-3183,1 51134U 22005AG  23193.35559094  .00004692  00000-0  31264-3 0  9991,2 51134  53.2170 329.6093 0001667  90.9175 269.2008 15.08845276 83359,6917.864,95.437,540.882,538.576,0.0
51134.0,STARLINK-3183,PAYLOAD,2023-07-12 16:28:58,15.08838782,0.0001684,53.2168,328.1222,90.0285,270.09,0.00027173,4.039e-05,0.0,0 STARLINK-3183,1 51134U 22005AG  23193.68679317  .00004039  00000-0  27173-3 0  9997,2 51134  53.2168 328.1222 0001684  90.0285 270.0900 15.08838782 83407,6917.884,95.438,540.914,538.584,0.0
51134.0,STARLINK-3183,PAYLOAD,2023-07-13 21:05:55,15.08853691,0.0001044,53.2157,322.7692,89.9333,270.1778,0.0014366,0.00022658,0.0,0 STARLINK-3183,1 51134U 22005AG  23194.87911340  .00022658  00000-0  14366-2 0  9990,2 51134  53.2157 322.7692 0001044  89.9333 270.1778 15.08853691 83586,6917.839,95.437,540.426,538.981,0.0
51134.0,STARLINK-3183,PAYLOAD,2023-07-14 08:13:37,15.08832054,6.62e-05,53.2158,320.6886,87.1835,272.9233,0.0003207,4.819e-05,0.0,0 STARLINK-3183,1 51134U 22005AG  23195.34279692  .00004819  00000-0  32070-3 0  9992,2 51134  53.2158 320.6886 0000662  87.1835 272.9233 15.08832054 83655,6917.905,95.438,540.228,539.312,0.0
51134.0,STARLINK-3183,PAYLOAD,2023-07-14 14:35:10,15.08857038,0.0001093,53.2157,319.4981,83.9808,276.1309,0.0010825,0.0001699,0.0,0 STARLINK-3183,1 51134U 22005AG  23195.60775483  .00016990  00000-0  10825-2 0  9996,2 51134  53.2157 319.4981 0001093  83.9808 276.1309 15.08857038 83692,6917.828,95.436,540.449,538.937,0.0
51134.0,STARLINK-3183,PAYLOAD,2023-07-15 01:42:52,15.08827023,0.0003516,53.2172,317.4161,92.7688,267.3707,0.00061879,9.57e-05,0.0,0 STARLINK-3183,1 51134U 22005AG  23196.07144573  .00009570  00000-0  61879-3 0  9990,2 51134  53.2172 317.4161 0003516  92.7688 267.3707 15.08827023 83766,6917.92,95.438,542.217,537.353,0.0
51134.0,STARLINK-3183,PAYLOAD,2023-07-15 17:36:43,15.0885252,0.0001189,53.2162,314.4438,80.748,279.3647,0.00091184,0.00014259,0.0,0 STARLINK-3183,1 51134U 22005AG  23196.73383586  .00014259  00000-0  91184-3 0  9994,2 51134  53.2162 314.4438 0001189  80.7480 279.3647 15.08852520 83867,6917.842,95.437,540.53,538.885,0.0
51134.0,STARLINK-3183,PAYLOAD,2023-07-16 09:30:35,15.0883956,8.79e-05,53.2157,311.4693,81.6281,278.4811,0.00094709,0.00014817,0.0,0 STARLINK-3183,1 51134U 22005AG  23197.39624113  .00014817  00000-0  94709-3 0  9997,2 51134  53.2157 311.4693 0000879  81.6281 278.4811 15.08839560 83968,6917.882,95.438,540.355,539.139,0.0
51134.0,STARLINK-3183,PAYLOAD,2023-07-16 17:27:30,15.08840813,0.0001037,53.2173,309.9838,92.7376,267.3735,0.00059501,9.195e-05,0.0,0 STARLINK-3183,1 51134U 22005AG  23197.72744137  .00009195  00000-0  59501-3 0  9997,2 51134  53.2173 309.9838 0001037  92.7376 267.3735 15.08840813 84016,6917.878,95.438,540.46,539.026,0.0
51134.0,STARLINK-3183,PAYLOAD,2023-07-18 10:47:32,15.08849552,0.0001222,53.2176,302.2526,94.1866,265.9266,0.00026603,3.95e-05,0.0,0 STARLINK-3183,1 51134U 22005AG  23199.44967704  .00003950  00000-0  26603-3 0  9995,2 51134  53.2176 302.2526 0001222  94.1866 265.9266 15.08849552 84275,6917.851,95.437,540.562,538.871,0.0
51134.0,STARLINK-3183,PAYLOAD,2023-07-19 07:27:33,15.08830993,0.0001751,53.2175,298.3849,111.9779,248.1399,-0.00011747,-2.157e-05,0.0,0 STARLINK-3183,1 51134U 22005AG  23200.31080315 -.00002157  00000-0 -11747-3 0  9991,2 51134  53.2175 298.3849 0001751 111.9779 248.1399 15.08830993 84409,6917.908,95.438,540.984,538.562,0.0
51134.0,STARLINK-3183,PAYLOAD,2023-07-20 15:15:16,15.08857599,0.000105,53.2162,292.4402,99.792,260.3191,0.0009348,0.00014628,0.0,0 STARLINK-3183,1 51134U 22005AG  23201.63560415  .00014628  00000-0  93480-3 0  9999,2 51134  53.2162 292.4402 0001050  99.7920 260.3191 15.08857599 84607,6917.827,95.436,540.418,538.965,0.0
51134.0,STARLINK-3183,PAYLOAD,2023-07-21 00:47:35,15.08850021,0.0001229,53.2138,290.6561,73.4161,286.6966,0.00046498,7.122e-05,0.0,0 STARLINK-3183,1 51134U 22005AG  23202.03304509  .00007122  00000-0  46498-3 0  9992,2 51134  53.2138 290.6561 0001229  73.4161 286.6966 15.08850021 84660,6917.85,95.437,540.565,538.865,0.0
51134.0,STARLINK-3183,PAYLOAD,2023-07-21 15:06:03,15.08850661,0.0001314,53.2145,287.98,71.5186,288.5949,0.00032945,4.961e-05,0.0,0 STARLINK-3183,1 51134U 22005AG  23202.62920292  .00004961  00000-0  32945-3 0  9990,2 51134  53.2145 287.9800 0001314  71.5186 288.5949 15.08850661 84756,6917.848,95.437,540.622,538.804,0.0
51134.0,STARLINK-3183,PAYLOAD,2023-07-23 14:47:37,15.08847587,0.000151,53.2156,279.0593,94.35,265.7665,-0.0001376,-2.478e-05,0.0,0 STARLINK-3183,1 51134U 22005AG  23204.61640218 -.00002478  00000-0 -13760-3 0  9995,2 51134  53.2156 279.0593 0001510  94.3500 265.7665 15.08847587 83945,6917.857,95.437,540.767,538.678,0.0
51134.0,STARLINK-3183,PAYLOAD,2023-07-25 12:53:48,15.08842013,9.72e-05,53.2162,270.434,88.8334,271.277,6.695e-05,7.78e-06,0.0,0 STARLINK-3183,1 51134U 22005AG  23206.53736549  .00000778  00000-0  66950-4 0  9990,2 51134  53.2162 270.4340 0000972  88.8334 271.2770 15.08842013 84232,6917.874,95.437,540.412,539.067,0.0
51134.0,STARLINK-3183,PAYLOAD,2023-07-26 12:44:35,15.08845214,9.58e-05,53.2159,265.9736,93.2788,266.8313,0.0001661,2.357e-05,0.0,0 STARLINK-3183,1 51134U 22005AG  23207.53096247  .00002357  00000-0  16610-3 0  9997,2 51134  53.2159 265.9736 0000958  93.2788 266.8313 15.08845214 84388,6917.864,95.437,540.392,539.067,0.0
51134.0,STARLINK-3183,PAYLOAD,2023-07-26 20:41:31,15.08839561,9.84e-05,53.2152,264.4865,90.2195,269.891,7.4271e-05,8.94e-06,0.0,0 STARLINK-3183,1 51134U 22005AG  23207.86216659  .00000894  00000-0  74271-4 0  9996,2 51134  53.2152 264.4865 0000984  90.2195 269.8910 15.08839561 84436,6917.882,95.438,540.427,539.066,0.0
51134.0,STARLINK-3183,PAYLOAD,2023-07-27 12:35:22,15.08849501,0.0001019,53.2152,261.5129,89.0548,271.0561,0.00018064,2.589e-05,0.0,0 STARLINK-3183,1 51134U 22005AG  23208.52456062  .00002589  00000-0  18064-3 0  9994,2 51134  53.2152 261.5129 0001019  89.0548 271.0561 15.08849501 84538,6917.851,95.437,540.421,539.011,0.0
